{
    "links": {
        "self": "http://www.neowsapp.com/rest/v1/neo/3653806?api_key=iIulBulltgU6a56xZRHN4H3l9WmuAYTsLGpBGhQ2"
    },
    "id": "3653806",
    "neo_reference_id": "3653806",
    "name": "(2013 WH)",
    "designation": "2013 WH",
    "nasa_jpl_url": "http://ssd.jpl.nasa.gov/sbdb.cgi?sstr=3653806",
    "absolute_magnitude_h": 21.3,
    "estimated_diameter": {
        "kilometers": {
            "estimated_diameter_min": 0.1460679643,
            "estimated_diameter_max": 0.3266178974
        },
        "meters": {
            "estimated_diameter_min": 146.0679642714,
            "estimated_diameter_max": 326.6178974458
        },
        "miles": {
            "estimated_diameter_min": 0.090762397,
            "estimated_diameter_max": 0.2029508896
        },
        "feet": {
            "estimated_diameter_min": 479.2256199,
            "estimated_diameter_max": 1071.581062656
        }
    },
    "is_potentially_hazardous_asteroid": false,
    "close_approach_data": [
        {
            "close_approach_date": "1979-11-23",
            "close_approach_date_full": "1979-Nov-23 04:46",
            "epoch_date_close_approach": 312180360000,
            "relative_velocity": {
                "kilometers_per_second": "11.1594178777",
                "kilometers_per_hour": "40173.9043596775",
                "miles_per_hour": "24962.5018506007"
            },
            "miss_distance": {
                "astronomical": "0.3266485081",
                "lunar": "127.0662696509",
                "kilometers": "48865921.050437747",
                "miles": "30363875.3491330286"
            },
            "orbiting_body": "Earth"
        },
        {
            "close_approach_date": "1996-11-21",
            "close_approach_date_full": "1996-Nov-21 08:28",
            "epoch_date_close_approach": 848564880000,
            "relative_velocity": {
                "kilometers_per_second": "11.2276935718",
                "kilometers_per_hour": "40419.6968584217",
                "miles_per_hour": "25115.2277507232"
            },
            "miss_distance": {
                "astronomical": "0.2702777132",
                "lunar": "105.1380304348",
                "kilometers": "40432970.203190884",
                "miles": "25123882.6743428392"
            },
            "orbiting_body": "Earth"
        },
        {
            "close_approach_date": "2013-11-21",
            "close_approach_date_full": "2013-Nov-21 05:51",
            "epoch_date_close_approach": 1385013060000,
            "relative_velocity": {
                "kilometers_per_second": "11.711888961",
                "kilometers_per_hour": "42162.8002594571",
                "miles_per_hour": "26198.3244167721"
            },
            "miss_distance": {
                "astronomical": "0.2575886435",
                "lunar": "100.2019823215",
                "kilometers": "38534712.403789345",
                "miles": "23944359.972989161"
            },
            "orbiting_body": "Earth"
        },
        {
            "close_approach_date": "2030-11-21",
            "close_approach_date_full": "2030-Nov-21 11:55",
            "epoch_date_close_approach": 1921492500000,
            "relative_velocity": {
                "kilometers_per_second": "13.0537764358",
                "kilometers_per_hour": "46993.5951687158",
                "miles_per_hour": "29199.992509139"
            },
            "miss_distance": {
                "astronomical": "0.3460595077",
                "lunar": "134.6171484953",
                "kilometers": "51769765.245168599",
                "miles": "32168240.4622167062"
            },
            "orbiting_body": "Earth"
        },
        {
            "close_approach_date": "2047-11-21",
            "close_approach_date_full": "2047-Nov-21 01:13",
            "epoch_date_close_approach": 2457911580000,
            "relative_velocity": {
                "kilometers_per_second": "14.6730490932",
                "kilometers_per_hour": "52822.9767355787",
                "miles_per_hour": "32822.1435166155"
            },
            "miss_distance": {
                "astronomical": "0.4846794236",
                "lunar": "188.5402957804",
                "kilometers": "72507009.403387732",
                "miles": "45053766.4723534216"
            },
            "orbiting_body": "Earth"
        }
    ],
    "orbital_data": {
        "orbit_id": "13",
        "orbit_determination_date": "2017-04-06 08:43:37",
        "first_observation_date": "2013-11-23",
        "last_observation_date": "2013-12-23",
        "data_arc_in_days": 30,
        "observations_used": 60,
        "orbit_uncertainty": "6",
        "minimum_orbit_intersection": ".259643",
        "jupiter_tisserand_invariant": "3.397",
        "epoch_osculation": "2459000.5",
        "eccentricity": ".4558500272314196",
        "semi_major_axis": "2.264094695672838",
        "inclination": "20.5817737014738",
        "ascending_node_longitude": "67.22131429554916",
        "orbital_period": "1244.343569335367",
        "perihelion_distance": "1.232007066995862",
        "perihelion_argument": "339.4726962102165",
        "aphelion_distance": "3.296182324349815",
        "perihelion_time": "2459094.700910344828",
        "mean_anomaly": "332.7468132115221",
        "mean_motion": ".2893091657895451",
        "equinox": "J2000",
        "orbit_class": {
            "orbit_class_type": "AMO",
            "orbit_class_description": "Near-Earth asteroid orbits similar to that of 1221 Amor",
            "orbit_class_range": "1.017 AU < q (perihelion) < 1.3 AU"
        }
    },
    "is_sentry_object": false
}